0 COSMOS 1651 (GLONASS)
1 15698U 85037B   13281.31484245  .00000032  00000-0  00000+0 0  5583
2 15698 064.1940 232.2833 0011918 004.5504 231.2765 02.13125186221006
0 COSMOS 1651 (GLONASS)
1 15698U 85037B   13287.38980272 -.00000027  00000-0  00000+0 0  5593
2 15698 064.1924 232.0731 0011953 005.5899 211.2489 02.13125314221138
0 COSMOS 1651 (GLONASS)
1 15698U 85037B   13289.76800606 -.00000040  00000-0  00000+0 0  5606
2 15698 064.1918 231.9909 0011973 005.6619 235.8557 02.13125390221186
0 COSMOS 1651 (GLONASS)
1 15698U 85037B   13292.02890682 -.00000025  00000-0  00000+0 0  5616
2 15698 064.1913 231.9128 0012012 005.8221 170.3741 02.13125323221230
0 COSMOS 1651 (GLONASS)
1 15698U 85037B   13294.36730309 -.00000005  00000-0  00000+0 0  5623
2 15698 064.1908 231.8321 0012042 005.9215 164.4129 02.13125315221285
